QIANFAN-65              
1 62795U 25016L   25346.95271793  .00000202  00000+0  29377-3 0  9990
2 62795  88.9762 103.0368 0013055 348.9227  11.1635 13.50984446 47272
QIANFAN-66              
1 62796U 25016M   25346.98150010  .00000187  00000+0  27183-3 0  9997
2 62796  88.9782 103.0041 0014051 343.5676  16.5018 13.50977141 47323
QIANFAN-67              
1 62797U 25016N   25346.91168838  .00000189  00000+0  27489-3 0  9999
2 62797  88.9772 103.0368 0014210 351.0984   8.9913 13.50981306 47280
QIANFAN-68              
1 62798U 25016P   25346.97744679  .00000212  00000+0  30939-3 0  9990
2 62798  88.9775 103.0752 0014205 349.0511  11.0329 13.50983812 47277
QIANFAN-69              
1 62799U 25016Q   25346.99393986  .00000192  00000+0  27809-3 0  9993
2 62799  88.9754 102.9428 0014986 349.8614  10.2233 13.50986594 47311
QIANFAN-70              
1 62800U 25016R   25346.93630109  .00000183  00000+0  26508-3 0  9996
2 62800  88.9775 103.0873 0014357 339.9381  20.1204 13.50977410 47265
QIANFAN-71              
1 62801U 25016S   25347.00620345  .00000175  00000+0  25188-3 0  9991
2 62801  88.9769 103.0596 0014995 353.5902   6.5055 13.50984524 47277
QIANFAN-72              
1 62802U 25016T   25346.94861180  .00000199  00000+0  28885-3 0  9991
2 62802  88.9759 103.0789 0018453   0.1426 359.9727 13.50984510 47254
